TIANWANG 1A (TW-1A)     
1 40928U 15051D   22363.79982108  .09201092  21690-5  85924-3 0  9992
2 40928  96.9993  28.5009 0003467 313.2323 142.4476 16.38834510408965
E-ST@R-II               
1 41459U 16025D   23002.43899301  .00018404  00000+0  70422-3 0  9995
2 41459  98.1909 188.2724 0130021 311.9108  47.1257 15.19018461367641
AAUSAT 4                
1 41460U 16025E   23002.48789174  .00041783  00000+0  12576-2 0  9999
2 41460  98.1786 196.7917 0102613 279.9089 103.1284 15.29118600368248
GRIFEX                  
1 40379U 15003D   23002.28110080  .00018560  00000+0  57064-3 0  9993
2 40379  99.0862 261.0027 0104868 117.4508 243.7437 15.28443940437936
CP10 (EXOCUBE)          
1 40380U 15003E   23002.57536202  .00012256  00000+0  42792-3 0  9993
2 40380  99.0959 253.0024 0115113 144.5793 216.3154 15.23618064437438
EXACTVIEW 9             
1 40936U 15052G   23002.19217114  .00002465  00000+0  24853-3 0  9999
2 40936   6.0016 194.6827 0009594  93.0804 267.0421 14.77625074392655
AEROCUBE 5C             
1 40965U 15058B   23002.75018651  .00002790  00000+0  32095-3 0  9992
2 40965  64.7717 186.1198 0170497 133.9476 227.5844 14.77931466178379
AEROCUBE 7              
1 40966U 15058C   23002.51207023  .00003885  00000+0  43439-3 0  9990
2 40966  64.7707 183.6939 0168441 133.9077 227.6079 14.78611376178352
ATHENOXAT 1             
1 41168U 15077C   23002.55459491  .00035242  00000+0  11984-2 0  9999
2 41168  14.9869  48.0142 0008702 179.0916  63.3720 15.28379995390728
GALASSIA                
1 41170U 15077E   23002.22693126  .00022963  00000+0  84183-3 0  9999
2 41170  14.9889  44.4640 0010158 188.7346 171.2800 15.25578523390563
VELOX-II                
1 41171U 15077F   23002.70051330  .00012740  00000+0  54745-3 0  9991
2 41171  14.9902 125.9233 0007235  18.1359 341.9220 15.19488520389981
HORYU-4                 
1 41340U 16012D   23002.61094175  .00004990  00000+0  33801-3 0  9991
2 41340  31.0025 165.9457 0012806  24.7809 335.3440 15.04852950377737
