[
    {
        "OBJECT_NAME": "GRIFEX",
        "OBJECT_ID": "2015-003D",
        "EPOCH": "2023-01-02T06:44:47.109120",
        "MEAN_MOTION": 15.2844394,
        "ECCENTRICITY": 0.0104868,
        "INCLINATION": 99.0862,
        "RA_OF_ASC_NODE": 261.0027,
        "ARG_OF_PERICENTER": 117.4508,
        "MEAN_ANOMALY": 243.7437,
        "EPHEMERIS_TYPE": 0,
        "CLASSIFICATION_TYPE": "U",
        "NORAD_CAT_ID": 40379,
        "ELEMENT_SET_NO": 999,
        "REV_AT_EPOCH": 43793,
        "BSTAR": 0.00057064,
        "MEAN_MOTION_DOT": 0.0001856,
        "MEAN_MOTION_DDOT": 0
    },
    {
        "OBJECT_NAME": "CP10 (EXOCUBE)",
        "OBJECT_ID": "2015-003E",
        "EPOCH": "2023-01-02T13:48:31.278528",
        "MEAN_MOTION": 15.23618064,
        "ECCENTRICITY": 0.0115113,
        "INCLINATION": 99.0959,
        "RA_OF_ASC_NODE": 253.0024,
        "ARG_OF_PERICENTER": 144.5793,
        "MEAN_ANOMALY": 216.3154,
        "EPHEMERIS_TYPE": 0,
        "CLASSIFICATION_TYPE": "U",
        "NORAD_CAT_ID": 40380,
        "ELEMENT_SET_NO": 999,
        "REV_AT_EPOCH": 43743,
        "BSTAR": 0.00042792,
        "MEAN_MOTION_DOT": 0.00012256,
        "MEAN_MOTION_DDOT": 0
    },
    {
        "OBJECT_NAME": "TIANWANG 1A (TW-1A)",
        "OBJECT_ID": "2015-051D",
        "EPOCH": "2022-12-29T19:11:44.541312",
        "MEAN_MOTION": 16.3883451,
        "ECCENTRICITY": 0.0003467,
        "INCLINATION": 96.9993,
        "RA_OF_ASC_NODE": 28.5009,
        "ARG_OF_PERICENTER": 313.2323,
        "MEAN_ANOMALY": 142.4476,
        "EPHEMERIS_TYPE": 0,
        "CLASSIFICATION_TYPE": "U",
        "NORAD_CAT_ID": 40928,
        "ELEMENT_SET_NO": 999,
        "REV_AT_EPOCH": 40896,
        "BSTAR": 0.00085924,
        "MEAN_MOTION_DOT": 0.09201092,
        "MEAN_MOTION_DDOT": 2.169e-6
    },
    {
        "OBJECT_NAME": "EXACTVIEW 9",
        "OBJECT_ID": "2015-052G",
        "EPOCH": "2023-01-02T04:36:43.586496",
        "MEAN_MOTION": 14.77625074,
        "ECCENTRICITY": 0.0009594,
        "INCLINATION": 6.0016,
        "RA_OF_ASC_NODE": 194.6827,
        "ARG_OF_PERICENTER": 93.0804,
        "MEAN_ANOMALY": 267.0421,
        "EPHEMERIS_TYPE": 0,
        "CLASSIFICATION_TYPE": "U",
        "NORAD_CAT_ID": 40936,
        "ELEMENT_SET_NO": 999,
        "REV_AT_EPOCH": 39265,
        "BSTAR": 0.00024853,
        "MEAN_MOTION_DOT": 2.465e-5,
        "MEAN_MOTION_DDOT": 0
    },
    {
        "OBJECT_NAME": "AEROCUBE 5C",
        "OBJECT_ID": "2015-058B",
        "EPOCH": "2023-01-02T18:00:16.114464",
        "MEAN_MOTION": 14.77931466,
        "ECCENTRICITY": 0.0170497,
        "INCLINATION": 64.7717,
        "RA_OF_ASC_NODE": 186.1198,
        "ARG_OF_PERICENTER": 133.9476,
        "MEAN_ANOMALY": 227.5844,
        "EPHEMERIS_TYPE": 0,
        "CLASSIFICATION_TYPE": "U",
        "NORAD_CAT_ID": 40965,
        "ELEMENT_SET_NO": 999,
        "REV_AT_EPOCH": 17837,
        "BSTAR": 0.00032095,
        "MEAN_MOTION_DOT": 2.79e-5,
        "MEAN_MOTION_DDOT": 0
    },
    {
        "OBJECT_NAME": "AEROCUBE 7",
        "OBJECT_ID": "2015-058C",
        "EPOCH": "2023-01-02T12:17:22.867872",
        "MEAN_MOTION": 14.78611376,
        "ECCENTRICITY": 0.0168441,
        "INCLINATION": 64.7707,
        "RA_OF_ASC_NODE": 183.6939,
        "ARG_OF_PERICENTER": 133.9077,
        "MEAN_ANOMALY": 227.6079,
        "EPHEMERIS_TYPE": 0,
        "CLASSIFICATION_TYPE": "U",
        "NORAD_CAT_ID": 40966,
        "ELEMENT_SET_NO": 999,
        "REV_AT_EPOCH": 17835,
        "BSTAR": 0.00043439,
        "MEAN_MOTION_DOT": 3.885e-5,
        "MEAN_MOTION_DDOT": 0
    },
    {
        "OBJECT_NAME": "ATHENOXAT 1",
        "OBJECT_ID": "2015-077C",
        "EPOCH": "2023-01-02T13:18:37.000224",
        "MEAN_MOTION": 15.28379995,
        "ECCENTRICITY": 0.0008702,
        "INCLINATION": 14.9869,
        "RA_OF_ASC_NODE": 48.0142,
        "ARG_OF_PERICENTER": 179.0916,
        "MEAN_ANOMALY": 63.372,
        "EPHEMERIS_TYPE": 0,
        "CLASSIFICATION_TYPE": "U",
        "NORAD_CAT_ID": 41168,
        "ELEMENT_SET_NO": 999,
        "REV_AT_EPOCH": 39072,
        "BSTAR": 0.0011984,
        "MEAN_MOTION_DOT": 0.00035242,
        "MEAN_MOTION_DDOT": 0
    },
    {
        "OBJECT_NAME": "GALASSIA",
        "OBJECT_ID": "2015-077E",
        "EPOCH": "2023-01-02T05:26:46.860864",
        "MEAN_MOTION": 15.25578523,
        "ECCENTRICITY": 0.0010158,
        "INCLINATION": 14.9889,
        "RA_OF_ASC_NODE": 44.464,
        "ARG_OF_PERICENTER": 188.7346,
        "MEAN_ANOMALY": 171.28,
        "EPHEMERIS_TYPE": 0,
        "CLASSIFICATION_TYPE": "U",
        "NORAD_CAT_ID": 41170,
        "ELEMENT_SET_NO": 999,
        "REV_AT_EPOCH": 39056,
        "BSTAR": 0.00084183,
        "MEAN_MOTION_DOT": 0.00022963,
        "MEAN_MOTION_DDOT": 0
    },
    {
        "OBJECT_NAME": "VELOX-II",
        "OBJECT_ID": "2015-077F",
        "EPOCH": "2023-01-02T16:48:44.349120",
        "MEAN_MOTION": 15.1948852,
        "ECCENTRICITY": 0.0007235,
        "INCLINATION": 14.9902,
        "RA_OF_ASC_NODE": 125.9233,
        "ARG_OF_PERICENTER": 18.1359,
        "MEAN_ANOMALY": 341.922,
        "EPHEMERIS_TYPE": 0,
        "CLASSIFICATION_TYPE": "U",
        "NORAD_CAT_ID": 41171,
        "ELEMENT_SET_NO": 999,
        "REV_AT_EPOCH": 38998,
        "BSTAR": 0.00054745,
        "MEAN_MOTION_DOT": 0.0001274,
        "MEAN_MOTION_DDOT": 0
    },
    {
        "OBJECT_NAME": "HORYU-4",
        "OBJECT_ID": "2016-012D",
        "EPOCH": "2023-01-02T14:39:45.367200",
        "MEAN_MOTION": 15.0485295,
        "ECCENTRICITY": 0.0012806,
        "INCLINATION": 31.0025,
        "RA_OF_ASC_NODE": 165.9457,
        "ARG_OF_PERICENTER": 24.7809,
        "MEAN_ANOMALY": 335.344,
        "EPHEMERIS_TYPE": 0,
        "CLASSIFICATION_TYPE": "U",
        "NORAD_CAT_ID": 41340,
        "ELEMENT_SET_NO": 999,
        "REV_AT_EPOCH": 37773,
        "BSTAR": 0.00033801,
        "MEAN_MOTION_DOT": 4.99e-5,
        "MEAN_MOTION_DDOT": 0
    },
    {
        "OBJECT_NAME": "E-ST@R-II",
        "OBJECT_ID": "2016-025D",
        "EPOCH": "2023-01-02T10:32:08.996064",
        "MEAN_MOTION": 15.19018461,
        "ECCENTRICITY": 0.0130021,
        "INCLINATION": 98.1909,
        "RA_OF_ASC_NODE": 188.2724,
        "ARG_OF_PERICENTER": 311.9108,
        "MEAN_ANOMALY": 47.1257,
        "EPHEMERIS_TYPE": 0,
        "CLASSIFICATION_TYPE": "U",
        "NORAD_CAT_ID": 41459,
        "ELEMENT_SET_NO": 999,
        "REV_AT_EPOCH": 36764,
        "BSTAR": 0.00070422,
        "MEAN_MOTION_DOT": 0.00018404,
        "MEAN_MOTION_DDOT": 0
    },
    {
        "OBJECT_NAME": "AAUSAT 4",
        "OBJECT_ID": "2016-025E",
        "EPOCH": "2023-01-02T11:42:33.846336",
        "MEAN_MOTION": 15.291186,
        "ECCENTRICITY": 0.0102613,
        "INCLINATION": 98.1786,
        "RA_OF_ASC_NODE": 196.7917,
        "ARG_OF_PERICENTER": 279.9089,
        "MEAN_ANOMALY": 103.1284,
        "EPHEMERIS_TYPE": 0,
        "CLASSIFICATION_TYPE": "U",
        "NORAD_CAT_ID": 41460,
        "ELEMENT_SET_NO": 999,
        "REV_AT_EPOCH": 36824,
        "BSTAR": 0.0012576,
        "MEAN_MOTION_DOT": 0.00041783,
        "MEAN_MOTION_DDOT": 0
    }
]